{"type": "FeatureCollection", "features": [ {"type": "Feature", "properties": {"norad_id": 33917, "name": "COSMOS 2251 DEB", "group": "cosmos-2251-debris", "lat": 43.42895347502365, "lon": -66.55440401679353, "alt_km": 1018.1321660697549, "timestamp": "2025-12-08T15:42:50.189010+00:00", "meta": {"OBJECT_NAME": "COSMOS 2251 DEB", "OBJECT_ID": "1993-036DW", "EPOCH": "2025-12-08T02:45:14.193504", "MEAN_MOTION": 13.69346585, "ECCENTRICITY": 0.03311868, "INCLINATION": 74.1067, "RA_OF_ASC_NODE": 129.9767, "ARG_OF_PERICENTER": 231.9482, "MEAN_ANOMALY": 125.1328, "EPHEMERIS_TYPE": 0, "CLASSIFICATION_TYPE": "U", "NORAD_CAT_ID": 33917, "ELEMENT_SET_NO": 999, "REV_AT_EPOCH": 83670, "BSTAR": 0.00098423796, "MEAN_MOTION_DOT": 1.233e-05, "MEAN_MOTION_DDOT": 0}, "tle": {"line1": "1 33917U 93036DW  25342.11474761  .00001233  00000+0  98424-3 0  9999", "line2": "2 33917  74.1067 129.9767 0331186 231.9482 125.1328 13.69346585836708"}}, "geometry": {"type": "Point", "coordinates": [-66.55440401679353, 43.42895347502365]}}, {"type": "Feature", "properties": {"norad_id": 33920, "name": "COSMOS 2251 DEB", "group": "cosmos-2251-debris", "lat": -5.267438640432486, "lon": -55.32321379638568, "alt_km": 681.9278709067585, "timestamp": "2025-12-08T15:42:50.189021+00:00", "meta": {"OBJECT_NAME": "COSMOS 2251 DEB", "OBJECT_ID": "1993-036DZ", "EPOCH": "2025-12-08T07:30:21.252672", "MEAN_MOTION": 14.58148618, "ECCENTRICITY": 0.00384806, "INCLINATION": 74.0601, "RA_OF_ASC_NODE": 306.8361, "ARG_OF_PERICENTER": 314.0622, "MEAN_ANOMALY": 45.7376, "EPHEMERIS_TYPE": 0, "CLASSIFICATION_TYPE": "U", "NORAD_CAT_ID": 33920, "ELEMENT_SET_NO": 999, "REV_AT_EPOCH": 88050, "BSTAR": 0.0027054307, "MEAN_MOTION_DOT": 0.00012592, "MEAN_MOTION_DDOT": 0}, "tle": {"line1": "1 33920U 93036DZ  25342.31274598  .00012592  00000+0  27054-2 0  9991", "line2": "2 33920  74.0601 306.8361 0038480 314.0622  45.7376 14.58148618880504"}}, "geometry": {"type": "Point", "coordinates": [-55.32321379638568, -5.267438640432486]}}, {"type": "Feature", "properties": {"norad_id": 33922, "name": "COSMOS 2251 DEB", "group": "cosmos-2251-debris", "lat": -73.11001618441631, "lon": 45.83367077839133, "alt_km": 717.7512279962402, "timestamp": "2025-12-08T15:42:50.189031+00:00", "meta": {"OBJECT_NAME": "COSMOS 2251 DEB", "OBJECT_ID": "1993-036EB", "EPOCH": "2025-12-07T22:30:19.755360", "MEAN_MOTION": 14.49480541, "ECCENTRICITY": 0.00232885, "INCLINATION": 74.0463, "RA_OF_ASC_NODE": 156.7668, "ARG_OF_PERICENTER": 267.9615, "MEAN_ANOMALY": 216.4678, "EPHEMERIS_TYPE": 0, "CLASSIFICATION_TYPE": "U", "NORAD_CAT_ID": 33922, "ELEMENT_SET_NO": 999, "REV_AT_EPOCH": 88508, "BSTAR": 0.00065173055, "MEAN_MOTION_DOT": 2.478e-05, "MEAN_MOTION_DDOT": 0}, "tle": {"line1": "1 33922U 93036EB  25341.93772865  .00002478  00000+0  65173-3 0  9997", "line2": "2 33922  74.0463 156.7668 0023288 267.9615 216.4678 14.49480541885086"}}, "geometry": {"type": "Point", "coordinates": [45.83367077839133, -73.11001618441631]}}, {"type": "Feature", "properties": {"norad_id": 33924, "name": "COSMOS 2251 DEB", "group": "cosmos-2251-debris", "lat": -27.57097028133437, "lon": 105.43283009912625, "alt_km": 1139.3130051897033, "timestamp": "2025-12-08T15:42:50.189041+00:00", "meta": {"OBJECT_NAME": "COSMOS 2251 DEB", "OBJECT_ID": "1993-036ED", "EPOCH": "2025-12-08T05:45:15.708096", "MEAN_MOTION": 13.50212784, "ECCENTRICITY": 0.04040634, "INCLINATION": 73.9143, "RA_OF_ASC_NODE": 277.4345, "ARG_OF_PERICENTER": 313.6796, "MEAN_ANOMALY": 43.1469, "EPHEMERIS_TYPE": 0, "CLASSIFICATION_TYPE": "U", "NORAD_CAT_ID": 33924, "ELEMENT_SET_NO": 999, "REV_AT_EPOCH": 82678, "BSTAR": 0.0018170896, "MEAN_MOTION_DOT": 1.904e-05, "MEAN_MOTION_DDOT": 0}, "tle": {"line1": "1 33924U 93036ED  25342.23976514  .00001904  00000+0  18171-2 0  9998", "line2": "2 33924  73.9143 277.4345 0404063 313.6796  43.1469 13.50212784826785"}}, "geometry": {"type": "Point", "coordinates": [105.43283009912625, -27.57097028133437]}}, {"type": "Feature", "properties": {"norad_id": 33928, "name": "COSMOS 2251 DEB", "group": "cosmos-2251-debris", "lat": 38.84420467778572, "lon": -133.16968413588774, "alt_km": 765.9923534846594, "timestamp": "2025-12-08T15:42:50.189052+00:00", "meta": {"OBJECT_NAME": "COSMOS 2251 DEB", "OBJECT_ID": "1993-036EH", "EPOCH": "2025-12-08T06:46:50.818368", "MEAN_MOTION": 14.47392546, "ECCENTRICITY": 0.00612392, "INCLINATION": 73.9262, "RA_OF_ASC_NODE": 60.9567, "ARG_OF_PERICENTER": 356.0421, "MEAN_ANOMALY": 4.0244, "EPHEMERIS_TYPE": 0, "CLASSIFICATION_TYPE": "U", "NORAD_CAT_ID": 33928, "ELEMENT_SET_NO": 999, "REV_AT_EPOCH": 88580, "BSTAR": 0.00046289877, "MEAN_MOTION_DOT": 1.709e-05, "MEAN_MOTION_DDOT": 0}, "tle": {"line1": "1 33928U 93036EH  25342.28253262  .00001709  00000+0  46290-3 0  9992", "line2": "2 33928  73.9262  60.9567 0061239 356.0421   4.0244 14.47392546885809"}}, "geometry": {"type": "Point", "coordinates": [-133.16968413588774, 38.84420467778572]}}, {"type": "Feature", "properties": {"norad_id": 33932, "name": "COSMOS 2251 DEB", "group": "cosmos-2251-debris", "lat": 41.23073090557272, "lon": -22.01800852505007, "alt_km": 733.9830246721231, "timestamp": "2025-12-08T15:42:50.189063+00:00", "meta": {"OBJECT_NAME": "COSMOS 2251 DEB", "OBJECT_ID": "1993-036EM", "EPOCH": "2025-12-08T07:10:14.868480", "MEAN_MOTION": 14.38737976, "ECCENTRICITY": 0.00350808, "INCLINATION": 74.0346, "RA_OF_ASC_NODE": 324.1081, "ARG_OF_PERICENTER": 41.5317, "MEAN_ANOMALY": 318.8492, "EPHEMERIS_TYPE": 0, "CLASSIFICATION_TYPE": "U", "NORAD_CAT_ID": 33932, "ELEMENT_SET_NO": 999, "REV_AT_EPOCH": 87934, "BSTAR": 0.00084031371, "MEAN_MOTION_DOT": 2.573e-05, "MEAN_MOTION_DDOT": 0}, "tle": {"line1": "1 33932U 93036EM  25342.29878320  .00002573  00000+0  84031-3 0  9991", "line2": "2 33932  74.0346 324.1081 0035080  41.5317 318.8492 14.38737976879343"}}, "geometry": {"type": "Point", "coordinates": [-22.01800852505007, 41.23073090557272]}}, {"type": "Feature", "properties": {"norad_id": 33933, "name": "COSMOS 2251 DEB", "group": "cosmos-2251-debris", "lat": -30.38427450247409, "lon": 57.95395959783306, "alt_km": 801.7965956157232, "timestamp": "2025-12-08T15:42:50.189073+00:00", "meta": {"OBJECT_NAME": "COSMOS 2251 DEB", "OBJECT_ID": "1993-036EN", "EPOCH": "2025-12-08T07:29:13.679232", "MEAN_MOTION": 14.33478429, "ECCENTRICITY": 0.0070785, "INCLINATION": 74.0894, "RA_OF_ASC_NODE": 68.2061, "ARG_OF_PERICENTER": 77.9445, "MEAN_ANOMALY": 282.9628, "EPHEMERIS_TYPE": 0, "CLASSIFICATION_TYPE": "U", "NORAD_CAT_ID": 33933, "ELEMENT_SET_NO": 999, "REV_AT_EPOCH": 87721, "BSTAR": 0.00055439379, "MEAN_MOTION_DOT": 1.55e-05, "MEAN_MOTION_DDOT": 0}, "tle": {"line1": "1 33933U 93036EN  25342.31196388  .00001550  00000+0  55439-3 0  9996", "line2": "2 33933  74.0894  68.2061 0070785  77.9445 282.9628 14.33478429877218"}}, "geometry": {"type": "Point", "coordinates": [57.95395959783306, -30.38427450247409]}}, {"type": "Feature", "properties": {"norad_id": 33934, "name": "COSMOS 2251 DEB", "group": "cosmos-2251-debris", "lat": 64.23395587404198, "lon": 144.7217288996822, "alt_km": 700.2950351511399, "timestamp": "2025-12-08T15:42:50.189087+00:00", "meta": {"OBJECT_NAME": "COSMOS 2251 DEB", "OBJECT_ID": "1993-036EP", "EPOCH": "2025-12-07T19:38:55.091616", "MEAN_MOTION": 14.5904112, "ECCENTRICITY": 0.00158551, "INCLINATION": 74.0384, "RA_OF_ASC_NODE": 109.9472, "ARG_OF_PERICENTER": 233.6668, "MEAN_ANOMALY": 126.3035, "EPHEMERIS_TYPE": 0, "CLASSIFICATION_TYPE": "U", "NORAD_CAT_ID": 33934, "ELEMENT_SET_NO": 999, "REV_AT_EPOCH": 88667, "BSTAR": 0.0017620593, "MEAN_MOTION_DOT": 8.276e-05, "MEAN_MOTION_DDOT": 0}, "tle": {"line1": "1 33934U 93036EP  25341.81869319  .00008276  00000+0  17621-2 0  9994", "line2": "2 33934  74.0384 109.9472 0015855 233.6668 126.3035 14.59041120886672"}}, "geometry": {"type": "Point", "coordinates": [144.7217288996822, 64.23395587404198]}}, {"type": "Feature", "properties": {"norad_id": 33936, "name": "COSMOS 2251 DEB", "group": "cosmos-2251-debris", "lat": -18.74577580297979, "lon": 39.710486760876776, "alt_km": 712.0185018788407, "timestamp": "2025-12-08T15:42:50.189098+00:00", "meta": {"OBJECT_NAME": "COSMOS 2251 DEB", "OBJECT_ID": "1993-036ER", "EPOCH": "2025-12-08T07:34:56.250048", "MEAN_MOTION": 14.60226095, "ECCENTRICITY": 0.00278424, "INCLINATION": 74.0188, "RA_OF_ASC_NODE": 45.9389, "ARG_OF_PERICENTER": 202.1916, "MEAN_ANOMALY": 157.8047, "EPHEMERIS_TYPE": 0, "CLASSIFICATION_TYPE": "U", "NORAD_CAT_ID": 33936, "ELEMENT_SET_NO": 999, "REV_AT_EPOCH": 88825, "BSTAR": 0.0010837497, "MEAN_MOTION_DOT": 5.229e-05, "MEAN_MOTION_DDOT": 0}, "tle": {"line1": "1 33936U 93036ER  25342.31592882  .00005229  00000+0  10837-2 0  9997", "line2": "2 33936  74.0188  45.9389 0027842 202.1916 157.8047 14.60226095888254"}}, "geometry": {"type": "Point", "coordinates": [39.710486760876776, -18.74577580297979]}}, {"type": "Feature", "properties": {"norad_id": 33938, "name": "COSMOS 2251 DEB", "group": "cosmos-2251-debris", "lat": 30.61376986511085, "lon": -135.45087518511406, "alt_km": 735.2223352013925, "timestamp": "2025-12-08T15:42:50.189108+00:00", "meta": {"OBJECT_NAME": "COSMOS 2251 DEB", "OBJECT_ID": "1993-036ET", "EPOCH": "2025-12-08T02:52:33.750048", "MEAN_MOTION": 14.4677155, "ECCENTRICITY": 0.00168668, "INCLINATION": 74.0452, "RA_OF_ASC_NODE": 215.8015, "ARG_OF_PERICENTER": 298.3141, "MEAN_ANOMALY": 188.6739, "EPHEMERIS_TYPE": 0, "CLASSIFICATION_TYPE": "U", "NORAD_CAT_ID": 33938, "ELEMENT_SET_NO": 999, "REV_AT_EPOCH": 88333, "BSTAR": 0.00061695629, "MEAN_MOTION_DOT": 2.211e-05, "MEAN_MOTION_DDOT": 0}, "tle": {"line1": "1 33938U 93036ET  25342.11983507  .00002211  00000+0  61696-3 0  9993", "line2": "2 33938  74.0452 215.8015 0016866 298.3141 188.6739 14.46771550883334"}}, "geometry": {"type": "Point", "coordinates": [-135.45087518511406, 30.61376986511085]}}]}